{"type": "FeatureCollection", "features": [ {"type": "Feature", "properties": {"norad_id": 32110, "name": "FENGYUN 1C DEB", "group": "fengyun-1c-debris", "lat": 43.76819014266582, "lon": 143.51057481824049, "alt_km": 770.9447078757103, "timestamp": "2025-12-09T20:37:09.572800+00:00", "meta": {"OBJECT_NAME": "FENGYUN 1C DEB", "OBJECT_ID": "1999-025CRC", "EPOCH": "2025-12-05T23:00:07.012800", "MEAN_MOTION": 14.28821693, "ECCENTRICITY": 0.00331812, "INCLINATION": 99.5433, "RA_OF_ASC_NODE": 148.5199, "ARG_OF_PERICENTER": 26.6073, "MEAN_ANOMALY": 124.1896, "EPHEMERIS_TYPE": 0, "CLASSIFICATION_TYPE": "U", "NORAD_CAT_ID": 32110, "ELEMENT_SET_NO": 999, "REV_AT_EPOCH": 64291, "BSTAR": 0.002644109, "MEAN_MOTION_DOT": 6.66e-05, "MEAN_MOTION_DDOT": 0}, "tle": {"line1": "1 32110U 99025CRC 25339.95841450  .00006660  00000+0  26441-2 0  9996", "line2": "2 32110  99.5433 148.5199 0033181  26.6073 124.1896 14.28821693642916"}}, "geometry": {"type": "Point", "coordinates": [143.51057481824049, 43.76819014266582]}}, {"type": "Feature", "properties": {"norad_id": 32111, "name": "FENGYUN 1C DEB", "group": "fengyun-1c-debris", "lat": 17.48494434440759, "lon": -19.01320503157549, "alt_km": 869.4177384548293, "timestamp": "2025-12-09T20:37:09.572811+00:00", "meta": {"OBJECT_NAME": "FENGYUN 1C DEB", "OBJECT_ID": "1999-025CRD", "EPOCH": "2025-12-09T11:11:57.828192", "MEAN_MOTION": 14.31540382, "ECCENTRICITY": 0.01195508, "INCLINATION": 98.4433, "RA_OF_ASC_NODE": 343.2869, "ARG_OF_PERICENTER": 214.6006, "MEAN_ANOMALY": 301.2277, "EPHEMERIS_TYPE": 0, "CLASSIFICATION_TYPE": "U", "NORAD_CAT_ID": 32111, "ELEMENT_SET_NO": 999, "REV_AT_EPOCH": 95984, "BSTAR": 0.00037065644, "MEAN_MOTION_DOT": 1.022e-05, "MEAN_MOTION_DDOT": 0}, "tle": {"line1": "1 32111U 99025CRD 25343.46664153  .00001022  00000+0  37066-3 0  9994", "line2": "2 32111  98.4433 343.2869 0119550 214.6006 301.2277 14.31540382959844"}}, "geometry": {"type": "Point", "coordinates": [-19.01320503157549, 17.48494434440759]}}, {"type": "Feature", "properties": {"norad_id": 32113, "name": "FENGYUN 1C DEB", "group": "fengyun-1c-debris", "lat": -73.21772494912982, "lon": 50.50354536066768, "alt_km": 805.5218009034952, "timestamp": "2025-12-09T20:37:09.572821+00:00", "meta": {"OBJECT_NAME": "FENGYUN 1C DEB", "OBJECT_ID": "1999-025CRF", "EPOCH": "2025-12-06T20:39:32.228352", "MEAN_MOTION": 13.94530668, "ECCENTRICITY": 0.02377827, "INCLINATION": 99.0267, "RA_OF_ASC_NODE": 15.7602, "ARG_OF_PERICENTER": 242.7405, "MEAN_ANOMALY": 114.9355, "EPHEMERIS_TYPE": 0, "CLASSIFICATION_TYPE": "U", "NORAD_CAT_ID": 32113, "ELEMENT_SET_NO": 999, "REV_AT_EPOCH": 62804, "BSTAR": 0.0013373683, "MEAN_MOTION_DOT": 2.214e-05, "MEAN_MOTION_DDOT": 0}, "tle": {"line1": "1 32113U 99025CRF 25340.86078968  .00002214  00000+0  13374-2 0  9999", "line2": "2 32113  99.0267  15.7602 0237782 242.7405 114.9355 13.94530668628042"}}, "geometry": {"type": "Point", "coordinates": [50.50354536066768, -73.21772494912982]}}, {"type": "Feature", "properties": {"norad_id": 32114, "name": "FENGYUN 1C DEB", "group": "fengyun-1c-debris", "lat": -79.66963352536196, "lon": 174.18408265099072, "alt_km": 641.8944339425543, "timestamp": "2025-12-09T20:37:09.572831+00:00", "meta": {"OBJECT_NAME": "FENGYUN 1C DEB", "OBJECT_ID": "1999-025CRG", "EPOCH": "2025-12-06T13:19:21.641376", "MEAN_MOTION": 14.76489439, "ECCENTRICITY": 0.00447682, "INCLINATION": 99.9287, "RA_OF_ASC_NODE": 96.1919, "ARG_OF_PERICENTER": 3.5911, "MEAN_ANOMALY": 356.5605, "EPHEMERIS_TYPE": 0, "CLASSIFICATION_TYPE": "U", "NORAD_CAT_ID": 32114, "ELEMENT_SET_NO": 999, "REV_AT_EPOCH": 65638, "BSTAR": 0.0040574802, "MEAN_MOTION_DOT": 0.0002877, "MEAN_MOTION_DDOT": 0}, "tle": {"line1": "1 32114U 99025CRG 25340.55511159  .00028770  00000+0  40575-2 0  9998", "line2": "2 32114  99.9287  96.1919 0044768   3.5911 356.5605 14.76489439656383"}}, "geometry": {"type": "Point", "coordinates": [174.18408265099072, -79.66963352536196]}}, {"type": "Feature", "properties": {"norad_id": 32117, "name": "FENGYUN 1C DEB", "group": "fengyun-1c-debris", "lat": -75.80059493846063, "lon": 66.05170208748348, "alt_km": 839.3669872752962, "timestamp": "2025-12-09T20:37:09.572841+00:00", "meta": {"OBJECT_NAME": "FENGYUN 1C DEB", "OBJECT_ID": "1999-025CRK", "EPOCH": "2025-12-07T08:16:39.214848", "MEAN_MOTION": 14.2390712, "ECCENTRICITY": 0.00277695, "INCLINATION": 98.6126, "RA_OF_ASC_NODE": 26.7926, "ARG_OF_PERICENTER": 106.9089, "MEAN_ANOMALY": 253.5138, "EPHEMERIS_TYPE": 0, "CLASSIFICATION_TYPE": "U", "NORAD_CAT_ID": 32117, "ELEMENT_SET_NO": 999, "REV_AT_EPOCH": 94720, "BSTAR": 0.0017096989, "MEAN_MOTION_DOT": 3.892e-05, "MEAN_MOTION_DDOT": 0}, "tle": {"line1": "1 32117U 99025CRK 25341.34489832  .00003892  00000+0  17097-2 0  9992", "line2": "2 32117  98.6126  26.7926 0027769 106.9089 253.5138 14.23907120947202"}}, "geometry": {"type": "Point", "coordinates": [66.05170208748348, -75.80059493846063]}}, {"type": "Feature", "properties": {"norad_id": 32119, "name": "FENGYUN 1C DEB", "group": "fengyun-1c-debris", "lat": 15.196630944549664, "lon": 28.839190412430106, "alt_km": 899.6665633203284, "timestamp": "2025-12-09T20:37:09.572851+00:00", "meta": {"OBJECT_NAME": "FENGYUN 1C DEB", "OBJECT_ID": "1999-025CRM", "EPOCH": "2025-12-05T08:00:17.816256", "MEAN_MOTION": 14.02791969, "ECCENTRICITY": 0.00850793, "INCLINATION": 99.888, "RA_OF_ASC_NODE": 201.214, "ARG_OF_PERICENTER": 72.2181, "MEAN_ANOMALY": 288.8243, "EPHEMERIS_TYPE": 0, "CLASSIFICATION_TYPE": "U", "NORAD_CAT_ID": 32119, "ELEMENT_SET_NO": 999, "REV_AT_EPOCH": 93624, "BSTAR": 0.0014372, "MEAN_MOTION_DOT": 2.245e-05, "MEAN_MOTION_DDOT": 0}, "tle": {"line1": "1 32119U 99025CRM 25339.33353954  .00002245  00000+0  14372-2 0  9999", "line2": "2 32119  99.8880 201.2140 0085079  72.2181 288.8243 14.02791969936247"}}, "geometry": {"type": "Point", "coordinates": [28.839190412430106, 15.196630944549664]}}, {"type": "Feature", "properties": {"norad_id": 32123, "name": "FENGYUN 1C DEB", "group": "fengyun-1c-debris", "lat": -7.27886366926199, "lon": -29.71737227503028, "alt_km": 738.2867525417796, "timestamp": "2025-12-09T20:37:09.572862+00:00", "meta": {"OBJECT_NAME": "FENGYUN 1C DEB", "OBJECT_ID": "1999-025CRR", "EPOCH": "2025-12-08T17:33:01.792800", "MEAN_MOTION": 14.61442853, "ECCENTRICITY": 0.01597746, "INCLINATION": 98.9412, "RA_OF_ASC_NODE": 150.2161, "ARG_OF_PERICENTER": 305.5311, "MEAN_ANOMALY": 72.8951, "EPHEMERIS_TYPE": 0, "CLASSIFICATION_TYPE": "U", "NORAD_CAT_ID": 32123, "ELEMENT_SET_NO": 999, "REV_AT_EPOCH": 71316, "BSTAR": 0.00047802265, "MEAN_MOTION_DOT": 2.773e-05, "MEAN_MOTION_DDOT": 0}, "tle": {"line1": "1 32123U 99025CRR 25342.73127075  .00002773  00000+0  47802-3 0  9996", "line2": "2 32123  98.9412 150.2161 0159774 305.5311  72.8951 14.61442853713161"}}, "geometry": {"type": "Point", "coordinates": [-29.71737227503028, -7.27886366926199]}}, {"type": "Feature", "properties": {"norad_id": 32125, "name": "FENGYUN 1C DEB", "group": "fengyun-1c-debris", "lat": -61.13604550683797, "lon": 127.05282366649882, "alt_km": 666.9820006506134, "timestamp": "2025-12-09T20:37:09.572872+00:00", "meta": {"OBJECT_NAME": "FENGYUN 1C DEB", "OBJECT_ID": "1999-025CRT", "EPOCH": "2025-11-30T16:29:46.563072", "MEAN_MOTION": 14.69027096, "ECCENTRICITY": 0.01775541, "INCLINATION": 99.061, "RA_OF_ASC_NODE": 313.7121, "ARG_OF_PERICENTER": 0.429, "MEAN_ANOMALY": 359.7033, "EPHEMERIS_TYPE": 0, "CLASSIFICATION_TYPE": "U", "NORAD_CAT_ID": 32125, "ELEMENT_SET_NO": 999, "REV_AT_EPOCH": 70346, "BSTAR": 0.0033542642, "MEAN_MOTION_DOT": 0.00025065, "MEAN_MOTION_DDOT": 0}, "tle": {"line1": "1 32125U 99025CRT 25334.68734448  .00025065  00000+0  33543-2 0  9996", "line2": "2 32125  99.0610 313.7121 0177554   0.4290 359.7033 14.69027096703466"}}, "geometry": {"type": "Point", "coordinates": [127.05282366649882, -61.13604550683797]}}, {"type": "Feature", "properties": {"norad_id": 32126, "name": "FENGYUN 1C DEB", "group": "fengyun-1c-debris", "lat": 70.76411166798812, "lon": 67.51107799880643, "alt_km": 1230.1803629326487, "timestamp": "2025-12-09T20:37:09.572883+00:00", "meta": {"OBJECT_NAME": "FENGYUN 1C DEB", "OBJECT_ID": "1999-025CRU", "EPOCH": "2025-12-08T21:03:50.440032", "MEAN_MOTION": 13.56787693, "ECCENTRICITY": 0.0281203, "INCLINATION": 99.1098, "RA_OF_ASC_NODE": 219.2267, "ARG_OF_PERICENTER": 265.4353, "MEAN_ANOMALY": 91.4619, "EPHEMERIS_TYPE": 0, "CLASSIFICATION_TYPE": "U", "NORAD_CAT_ID": 32126, "ELEMENT_SET_NO": 999, "REV_AT_EPOCH": 61662, "BSTAR": 0.0016621, "MEAN_MOTION_DOT": 1.479e-05, "MEAN_MOTION_DDOT": 0}, "tle": {"line1": "1 32126U 99025CRU 25342.87766713  .00001479  00000+0  16621-2 0  9998", "line2": "2 32126  99.1098 219.2267 0281203 265.4353  91.4619 13.56787693616621"}}, "geometry": {"type": "Point", "coordinates": [67.51107799880643, 70.76411166798812]}}, {"type": "Feature", "properties": {"norad_id": 32128, "name": "FENGYUN 1C DEB", "group": "fengyun-1c-debris", "lat": 23.389139725912898, "lon": 26.191745804344382, "alt_km": 1168.8812973142067, "timestamp": "2025-12-09T20:37:09.572893+00:00", "meta": {"OBJECT_NAME": "FENGYUN 1C DEB", "OBJECT_ID": "1999-025CRW", "EPOCH": "2025-12-08T08:19:42.999744", "MEAN_MOTION": 13.94198496, "ECCENTRICITY": 0.03969063, "INCLINATION": 99.0311, "RA_OF_ASC_NODE": 28.6535, "ARG_OF_PERICENTER": 234.9123, "MEAN_ANOMALY": 121.422, "EPHEMERIS_TYPE": 0, "CLASSIFICATION_TYPE": "U", "NORAD_CAT_ID": 32128, "ELEMENT_SET_NO": 999, "REV_AT_EPOCH": 62924, "BSTAR": 0.0012078954, "MEAN_MOTION_DOT": 3.042e-05, "MEAN_MOTION_DDOT": 0}, "tle": {"line1": "1 32128U 99025CRW 25342.34702546  .00003042  00000+0  12079-2 0  9997", "line2": "2 32128  99.0311  28.6535 0396906 234.9123 121.4220 13.94198496629246"}}, "geometry": {"type": "Point", "coordinates": [26.191745804344382, 23.389139725912898]}}]}